{
  "type": "FeatureCollection",
  "features": [
    {
      "type": "Feature",
      "geometry": {
        "type": "Point",
        "coordinates": [
          139.63555480000002,
          35.6994251
        ]
      },
      "properties": {
        "No": "119916",
        "タイトル": "南阿佐ヶ谷駅",
        "緯度": "35.6994251",
        "経度": "139.6355548",
        "name": "南阿佐ヶ谷駅"
      }
    },
    {
      "type": "Feature",
      "geometry": {
        "type": "Point",
        "coordinates": [
          139.64259289999995,
          35.6976825
        ]
      },
      "properties": {
        "No": "119917",
        "タイトル": "高円寺と阿佐ヶ谷の真ん中",
        "緯度": "35.6976825",
        "経度": "139.6425929",
        "name": "高円寺と阿佐ヶ谷の真ん中"
      }
    },
    {
      "type": "Feature",
      "geometry": {
        "type": "Point",
        "coordinates": [
          139.6299758,
          35.7017949
        ]
      },
      "properties": {
        "No": "119918",
        "タイトル": "荻窪までもうちょい",
        "緯度": "35.7017949",
        "経度": "139.6299758",
        "name": "荻窪までもうちょい"
      }
    },
    {
      "type": "Feature",
      "geometry": {
        "type": "Point",
        "coordinates": [
          139.62328100000002,
          35.7050708
        ]
      },
      "properties": {
        "No": "119919",
        "タイトル": "荻窪",
        "緯度": "35.7050708",
        "経度": "139.623281",
        "name": "荻窪"
      }
    },
    {
      "type": "Feature",
      "geometry": {
        "type": "Point",
        "coordinates": [
          139.65463469999997,
          35.697918
        ]
      },
      "properties": {
        "No": "119920",
        "タイトル": "かんなな交差点",
        "緯度": "35.697918",
        "経度": "139.6546347",
        "name": "かんなな交差点"
      }
    },
    {
      "type": "Feature",
      "geometry": {
        "type": "Point",
        "coordinates": [
          139.65856180000003,
          35.697918
        ]
      },
      "properties": {
        "No": "119921",
        "タイトル": "がしえんじ",
        "緯度": "35.697918",
        "経度": "139.6585618",
        "name": "がしえんじ"
      }
    },
    {
      "type": "Feature",
      "geometry": {
        "type": "Point",
        "coordinates": [
          139.64852339999993,
          35.6977994
        ]
      },
      "properties": {
        "No": "119922",
        "タイトル": "おうち",
        "緯度": "35.6977994",
        "経度": "139.6485234",
        "name": "おうち"
      }
    },
    {
      "type": "Feature",
      "geometry": {
        "type": "Point",
        "coordinates": [
          139.63330910000002,
          35.6917454
        ]
      },
      "properties": {
        "No": "119923",
        "タイトル": "ミニストップ",
        "緯度": "35.6917454",
        "経度": "139.6333091",
        "name": "ミニストップ"
      }
    },
    {
      "type": "Feature",
      "geometry": {
        "type": "Point",
        "coordinates": [
          139.6308285,
          35.6909485
        ]
      },
      "properties": {
        "No": "119924",
        "タイトル": "鎌倉街道",
        "緯度": "35.6909485",
        "経度": "139.6308285",
        "name": "鎌倉街道"
      }
    },
    {
      "type": "Feature",
      "geometry": {
        "type": "Point",
        "coordinates": [
          139.6264595,
          35.6907094
        ]
      },
      "properties": {
        "No": "119925",
        "タイトル": "バス基地",
        "緯度": "35.6907094",
        "経度": "139.6264595",
        "name": "バス基地"
      }
    },
    {
      "type": "Feature",
      "geometry": {
        "type": "Point",
        "coordinates": [
          139.61896409999997,
          35.6898346
        ]
      },
      "properties": {
        "No": "119926",
        "タイトル": "ジョナサン",
        "緯度": "35.6898346",
        "経度": "139.6189641",
        "name": "ジョナサン"
      }
    },
    {
      "type": "Feature",
      "geometry": {
        "type": "Point",
        "coordinates": [
          139.64442259999998,
          35.6975784
        ]
      },
      "properties": {
        "No": "119927",
        "タイトル": "高円寺あさがや160m前",
        "緯度": "35.6975784",
        "経度": "139.6444226",
        "name": "高円寺あさがや160m前"
      }
    },
    {
      "type": "Feature",
      "geometry": {
        "type": "Point",
        "coordinates": [
          139.63756290000003,
          35.6986727
        ]
      },
      "properties": {
        "No": "119928",
        "タイトル": "あさがや160m前",
        "緯度": "35.6986727",
        "経度": "139.6375629",
        "name": "あさがや160m前"
      }
    },
    {
      "type": "Feature",
      "geometry": {
        "type": "Point",
        "coordinates": [
          139.6315958,
          35.7010459
        ]
      },
      "properties": {
        "No": "119929",
        "タイトル": "荻窪もうちょい160m前",
        "緯度": "35.7010459",
        "経度": "139.6315958",
        "name": "荻窪もうちょい160m前"
      }
    },
    {
      "type": "Feature",
      "geometry": {
        "type": "Point",
        "coordinates": [
          139.6255688,
          35.7042463
        ]
      },
      "properties": {
        "No": "119930",
        "タイトル": "荻窪160m前",
        "緯度": "35.7042463",
        "経度": "139.6255688",
        "name": "荻窪160m前"
      }
    },
    {
      "type": "Feature",
      "geometry": {
        "type": "Point",
        "coordinates": [
          139.61775409999996,
          35.6899087
        ]
      },
      "properties": {
        "No": "119931",
        "タイトル": "ジョナサン100m",
        "緯度": "35.6899087",
        "経度": "139.6177541",
        "name": "ジョナサン100m"
      }
    },
    {
      "type": "Feature",
      "geometry": {
        "type": "Point",
        "coordinates": [
          139.62532999999996,
          35.6907327
        ]
      },
      "properties": {
        "No": "119932",
        "タイトル": "バス100m",
        "緯度": "35.6907327",
        "経度": "139.62533",
        "name": "バス100m"
      }
    },
    {
      "type": "Feature",
      "geometry": {
        "type": "Point",
        "coordinates": [
          139.6299656,
          35.6907656
        ]
      },
      "properties": {
        "No": "119933",
        "タイトル": "鎌倉い100m",
        "緯度": "35.6907656",
        "経度": "139.6299656",
        "name": "鎌倉い100m"
      }
    },
    {
      "type": "Feature",
      "geometry": {
        "type": "Point",
        "coordinates": [
          139.63238049999995,
          35.6915188
        ]
      },
      "properties": {
        "No": "119934",
        "タイトル": "ミニストップ100m",
        "緯度": "35.6915188",
        "経度": "139.6323805",
        "name": "ミニストップ100m"
      }
    },
    {
      "type": "Feature",
      "geometry": {
        "type": "Point",
        "coordinates": [
          134.67018239999993,
          34.8479492
        ]
      },
      "properties": {
        "No": "120216",
        "タイトル": "マンション出口",
        "緯度": "34.8479492",
        "経度": "134.6701824",
        "name": "マンション出口"
      }
    },
    {
      "type": "Feature",
      "geometry": {
        "type": "Point",
        "coordinates": [
          135.50164040000004,
          34.7054992
        ]
      },
      "properties": {
        "No": "120323",
        "タイトル": "梅田センタービル出口",
        "緯度": "34.7054992",
        "経度": "135.5016404",
        "name": "梅田センタービル出口"
      }
    },
    {
      "type": "Feature",
      "geometry": {
        "type": "Point",
        "coordinates": [
          135.50123459999998,
          34.7052117
        ]
      },
      "properties": {
        "No": "120324",
        "タイトル": "交差点を渡ったところ",
        "緯度": "34.7052117",
        "経度": "135.5012346",
        "name": "交差点を渡ったところ"
      }
    },
    {
      "type": "Feature",
      "geometry": {
        "type": "Point",
        "coordinates": [
          135.50092930000005,
          34.7055805
        ]
      },
      "properties": {
        "No": "120325",
        "タイトル": "交差点を渡ったところ２",
        "緯度": "34.7055805",
        "経度": "135.5009293",
        "name": "交差点を渡ったところ２"
      }
    },
    {
      "type": "Feature",
      "geometry": {
        "type": "Point",
        "coordinates": [
          135.50090079999995,
          34.704692
        ]
      },
      "properties": {
        "No": "120326",
        "タイトル": "ESTの入り口",
        "緯度": "34.704692",
        "経度": "135.5009008",
        "name": "ESTの入り口"
      }
    },
    {
      "type": "Feature",
      "geometry": {
        "type": "Point",
        "coordinates": [
          135.49954560000003,
          34.7039261
        ]
      },
      "properties": {
        "No": "120327",
        "タイトル": "HEP5の入り口",
        "緯度": "34.7039261",
        "経度": "135.4995456",
        "name": "HEP5の入り口"
      }
    },
    {
      "type": "Feature",
      "geometry": {
        "type": "Point",
        "coordinates": [
          135.4979369,
          34.7029672
        ]
      },
      "properties": {
        "No": "120328",
        "タイトル": "JR大阪駅横断歩道まえ",
        "緯度": "34.7029672",
        "経度": "135.4979369",
        "name": "JR大阪駅横断歩道まえ"
      }
    },
    {
      "type": "Feature",
      "geometry": {
        "type": "Point",
        "coordinates": [
          135.4933585,
          34.7005515
        ]
      },
      "properties": {
        "No": "120329",
        "タイトル": "KITTEの近く",
        "緯度": "34.7005515",
        "経度": "135.4933585",
        "name": "KITTEの近く"
      }
    },
    {
      "type": "Feature",
      "geometry": {
        "type": "Point",
        "coordinates": [
          134.67068919999997,
          34.847714
        ]
      },
      "properties": {
        "No": "120330",
        "タイトル": "住宅地分かれ道",
        "緯度": "34.847714",
        "経度": "134.6706892",
        "name": "住宅地分かれ道"
      }
    },
    {
      "type": "Feature",
      "geometry": {
        "type": "Point",
        "coordinates": [
          134.67104240000003,
          34.8477779
        ]
      },
      "properties": {
        "No": "120331",
        "タイトル": "公園前",
        "緯度": "34.8477779",
        "経度": "134.6710424",
        "name": "公園前"
      }
    },
    {
      "type": "Feature",
      "geometry": {
        "type": "Point",
        "coordinates": [
          134.67278580000004,
          34.8480753
        ]
      },
      "properties": {
        "No": "120332",
        "タイトル": "マグドナルドの道路向かい",
        "緯度": "34.8480753",
        "経度": "134.6727858",
        "name": "マグドナルドの道路向かい"
      }
    },
    {
      "type": "Feature",
      "geometry": {
        "type": "Point",
        "coordinates": [
          134.6731489,
          34.8479451
        ]
      },
      "properties": {
        "No": "120333",
        "タイトル": "丸亀製麺のまえ",
        "緯度": "34.8479451",
        "経度": "134.6731489",
        "name": "丸亀製麺のまえ"
      }
    },
    {
      "type": "Feature",
      "geometry": {
        "type": "Point",
        "coordinates": [
          134.67296639999995,
          34.8482095
        ]
      },
      "properties": {
        "No": "120334",
        "タイトル": "マグドナルドの前",
        "緯度": "34.8482095",
        "経度": "134.6729664",
        "name": "マグドナルドの前"
      }
    },
    {
      "type": "Feature",
      "geometry": {
        "type": "Point",
        "coordinates": [
          134.67092160000004,
          34.8489933
        ]
      },
      "properties": {
        "No": "120335",
        "タイトル": "東京靴流通センター",
        "緯度": "34.8489933",
        "経度": "134.6709216",
        "name": "東京靴流通センター"
      }
    },
    {
      "type": "Feature",
      "geometry": {
        "type": "Point",
        "coordinates": [
          134.6700684,
          34.8494532
        ]
      },
      "properties": {
        "No": "120336",
        "タイトル": "ドコモ",
        "緯度": "34.8494532",
        "経度": "134.6700684",
        "name": "ドコモ"
      }
    },
    {
      "type": "Feature",
      "geometry": {
        "type": "Point",
        "coordinates": [
          134.67079130000002,
          34.8488352
        ]
      },
      "properties": {
        "No": "120337",
        "タイトル": "ユニクロのまえ",
        "緯度": "34.8488352",
        "経度": "134.6707913",
        "name": "ユニクロのまえ"
      }
    },
    {
      "type": "Feature",
      "geometry": {
        "type": "Point",
        "coordinates": [
          134.6693411,
          34.8499434
        ]
      },
      "properties": {
        "No": "120338",
        "タイトル": "帰り道の横断歩道",
        "緯度": "34.8499434",
        "経度": "134.6693411",
        "name": "帰り道の横断歩道"
      }
    },
    {
      "type": "Feature",
      "geometry": {
        "type": "Point",
        "coordinates": [
          134.66880790000005,
          34.8504975
        ]
      },
      "properties": {
        "No": "120339",
        "タイトル": "すき家",
        "緯度": "34.8504975",
        "経度": "134.6688079",
        "name": "すき家"
      }
    },
    {
      "type": "Feature",
      "geometry": {
        "type": "Point",
        "coordinates": [
          134.66974460000006,
          34.8485199
        ]
      },
      "properties": {
        "No": "120340",
        "タイトル": "関電の変電所入り口",
        "緯度": "34.8485199",
        "経度": "134.6697446",
        "name": "関電の変電所入り口"
      }
    },
    {
      "type": "Feature",
      "geometry": {
        "type": "Point",
        "coordinates": [
          134.66982110000004,
          34.8481209
        ]
      },
      "properties": {
        "No": "120341",
        "タイトル": "マンションにゆく橋",
        "緯度": "34.8481209",
        "経度": "134.6698211",
        "name": "マンションにゆく橋"
      }
    },
    {
      "type": "Feature",
      "geometry": {
        "type": "Point",
        "coordinates": [
          134.67276190000007,
          34.8469736
        ]
      },
      "properties": {
        "No": "120342",
        "タイトル": "CoCo壱番屋",
        "緯度": "34.8469736",
        "経度": "134.6727619",
        "name": "CoCo壱番屋"
      }
    },
    {
      "type": "Feature",
      "geometry": {
        "type": "Point",
        "coordinates": [
          134.6728994,
          34.8468952
        ]
      },
      "properties": {
        "No": "120343",
        "タイトル": "シャトレーゼ",
        "緯度": "34.8468952",
        "経度": "134.6728994",
        "name": "シャトレーゼ"
      }
    },
    {
      "type": "Feature",
      "geometry": {
        "type": "Point",
        "coordinates": [
          135.50415750000002,
          34.7325512
        ]
      },
      "properties": {
        "No": "120344",
        "タイトル": "スーパーホテルＪＲ新大阪東口",
        "緯度": "34.7325512",
        "経度": "135.5041575",
        "name": "スーパーホテルＪＲ新大阪東口"
      }
    },
    {
      "type": "Feature",
      "geometry": {
        "type": "Point",
        "coordinates": [
          135.5039223,
          34.7327236
        ]
      },
      "properties": {
        "No": "120345",
        "タイトル": "Bennie Laundry 新大阪店",
        "緯度": "34.7327236",
        "経度": "135.5039223",
        "name": "Bennie Laundry 新大阪店"
      }
    },
    {
      "type": "Feature",
      "geometry": {
        "type": "Point",
        "coordinates": [
          135.5035133,
          34.7325923
        ]
      },
      "properties": {
        "No": "120346",
        "タイトル": "たかうち珈琲店",
        "緯度": "34.7325923",
        "経度": "135.5035133",
        "name": "たかうち珈琲店"
      }
    },
    {
      "type": "Feature",
      "geometry": {
        "type": "Point",
        "coordinates": [
          135.50400820000004,
          34.7320993
        ]
      },
      "properties": {
        "No": "120347",
        "タイトル": "KOKO PLAZA 大阪市立青少年センター",
        "緯度": "34.7320993",
        "経度": "135.5040082",
        "name": "KOKO PLAZA 大阪市立青少年センター"
      }
    },
    {
      "type": "Feature",
      "geometry": {
        "type": "Point",
        "coordinates": [
          135.50217569999995,
          34.7324776
        ]
      },
      "properties": {
        "No": "120348",
        "タイトル": "メンエス でびにゃ 新大阪ルーム",
        "緯度": "34.7324776",
        "経度": "135.5021757",
        "name": "メンエス でびにゃ 新大阪ルーム"
      }
    },
    {
      "type": "Feature",
      "geometry": {
        "type": "Point",
        "coordinates": [
          135.5001416,
          34.7310992
        ]
      },
      "properties": {
        "No": "120349",
        "タイトル": "新大阪駅前中央ビル",
        "緯度": "34.7310992",
        "経度": "135.5001416",
        "name": "新大阪駅前中央ビル"
      }
    },
    {
      "type": "Feature",
      "geometry": {
        "type": "Point",
        "coordinates": [
          135.4998518,
          34.7306042
        ]
      },
      "properties": {
        "No": "120350",
        "タイトル": "新大阪ワシントンホテルプラザ",
        "緯度": "34.7306042",
        "経度": "135.4998518",
        "name": "新大阪ワシントンホテルプラザ"
      }
    },
    {
      "type": "Feature",
      "geometry": {
        "type": "Point",
        "coordinates": [
          135.50104499999998,
          34.7300312
        ]
      },
      "properties": {
        "No": "120351",
        "タイトル": "コンフォートホテル 新大阪",
        "緯度": "34.7300312",
        "経度": "135.501045",
        "name": "コンフォートホテル 新大阪"
      }
    },
    {
      "type": "Feature",
      "geometry": {
        "type": "Point",
        "coordinates": [
          135.49969520000002,
          34.7301588
        ]
      },
      "properties": {
        "No": "120352",
        "タイトル": "ラーメン豚山 新大阪店",
        "緯度": "34.7301588",
        "経度": "135.4996952",
        "name": "ラーメン豚山 新大阪店"
      }
    },
    {
      "type": "Feature",
      "geometry": {
        "type": "Point",
        "coordinates": [
          135.49913270000002,
          34.7296326
        ]
      },
      "properties": {
        "No": "120353",
        "タイトル": "コメダ珈琲店 新大阪店",
        "緯度": "34.7296326",
        "経度": "135.4991327",
        "name": "コメダ珈琲店 新大阪店"
      }
    },
    {
      "type": "Feature",
      "geometry": {
        "type": "Point",
        "coordinates": [
          135.49992470000007,
          34.7296117
        ]
      },
      "properties": {
        "No": "120354",
        "タイトル": "お肉と海鮮 個室居酒屋 花しずく 新大阪店",
        "緯度": "34.7296117",
        "経度": "135.4999247",
        "name": "お肉と海鮮 個室居酒屋 花しずく 新大阪店"
      }
    },
    {
      "type": "Feature",
      "geometry": {
        "type": "Point",
        "coordinates": [
          135.49994879999997,
          34.7293785
        ]
      },
      "properties": {
        "No": "120355",
        "タイトル": "Indian Resturent Amana",
        "緯度": "34.7293785",
        "経度": "135.4999488",
        "name": "Indian Resturent Amana"
      }
    },
    {
      "type": "Feature",
      "geometry": {
        "type": "Point",
        "coordinates": [
          135.50087840000003,
          34.7303831
        ]
      },
      "properties": {
        "No": "120356",
        "タイトル": "豊しげ うどん 美味しいですか？",
        "緯度": "34.7303831",
        "経度": "135.5008784",
        "name": "豊しげ うどん 美味しいですか？"
      }
    },
    {
      "type": "Feature",
      "geometry": {
        "type": "Point",
        "coordinates": [
          135.5007935,
          34.7294297
        ]
      },
      "properties": {
        "No": "120357",
        "タイトル": "大阪こども専門学校",
        "緯度": "34.7294297",
        "経度": "135.5007935",
        "name": "大阪こども専門学校"
      }
    }
  ]
}
